{"type": "FeatureCollection", "features": [ {"type": "Feature", "properties": {"norad_id": 33153, "name": "INTELSAT 25 (IS-25)", "group": "intelsat", "lat": -1.2904011053972722, "lon": -63.332778711529784, "alt_km": 35766.90791163581, "timestamp": "2025-12-27T15:27:10.811078+00:00", "meta": {"OBJECT_NAME": "INTELSAT 25 (IS-25)", "OBJECT_ID": "2008-034A", "EPOCH": "2025-12-27T02:23:21.689376", "MEAN_MOTION": 1.00271146, "ECCENTRICITY": 0.00050213, "INCLINATION": 2.2627, "RA_OF_ASC_NODE": 82.491, "ARG_OF_PERICENTER": 191.1841, "MEAN_ANOMALY": 186.5053, "EPHEMERIS_TYPE": 0, "CLASSIFICATION_TYPE": "U", "NORAD_CAT_ID": 33153, "ELEMENT_SET_NO": 999, "REV_AT_EPOCH": 6397, "BSTAR": 0, "MEAN_MOTION_DOT": -2.02e-06, "MEAN_MOTION_DDOT": 0}, "tle": {"line1": "1 33153U 08034A   25361.09955659 -.00000202  00000+0  00000+0 0  9998", "line2": "2 33153   2.2627  82.4910 0005021 191.1841 186.5053  1.00271146 63978"}}, "geometry": {"type": "Point", "coordinates": [-63.332778711529784, -1.2904011053972722]}}, {"type": "Feature", "properties": {"norad_id": 33376, "name": "GALAXY 19 (G-19)", "group": "intelsat", "lat": -0.02961246941064431, "lon": -128.86920128382926, "alt_km": 35778.82631474835, "timestamp": "2025-12-27T15:27:10.811090+00:00", "meta": {"OBJECT_NAME": "GALAXY 19 (G-19)", "OBJECT_ID": "2008-045A", "EPOCH": "2025-12-27T05:41:18.526272", "MEAN_MOTION": 1.0027147, "ECCENTRICITY": 0.00028557, "INCLINATION": 0.0364, "RA_OF_ASC_NODE": 265.8723, "ARG_OF_PERICENTER": 17.7954, "MEAN_ANOMALY": 160.6281, "EPHEMERIS_TYPE": 0, "CLASSIFICATION_TYPE": "U", "NORAD_CAT_ID": 33376, "ELEMENT_SET_NO": 999, "REV_AT_EPOCH": 6317, "BSTAR": 0, "MEAN_MOTION_DOT": -1.17e-06, "MEAN_MOTION_DDOT": 0}, "tle": {"line1": "1 33376U 08045A   25361.23701998 -.00000117  00000+0  00000+0 0  9993", "line2": "2 33376   0.0364 265.8723 0002855  17.7954 160.6281  1.00271470 63176"}}, "geometry": {"type": "Point", "coordinates": [-128.86920128382926, -0.02961246941064431]}}, {"type": "Feature", "properties": {"norad_id": 35493, "name": "FM-5", "group": "intelsat", "lat": -0.01992812238731479, "lon": -117.99931408782066, "alt_km": 35786.29591389926, "timestamp": "2025-12-27T15:27:10.811102+00:00", "meta": {"OBJECT_NAME": "FM-5", "OBJECT_ID": "2009-034A", "EPOCH": "2025-12-25T21:13:02.840160", "MEAN_MOTION": 1.00269478, "ECCENTRICITY": 7.9e-05, "INCLINATION": 0.0148, "RA_OF_ASC_NODE": 303.8545, "ARG_OF_PERICENTER": 217.7513, "MEAN_ANOMALY": 165.1409, "EPHEMERIS_TYPE": 0, "CLASSIFICATION_TYPE": "U", "NORAD_CAT_ID": 35493, "ELEMENT_SET_NO": 999, "REV_AT_EPOCH": 4490, "BSTAR": 0, "MEAN_MOTION_DOT": -1.78e-06, "MEAN_MOTION_DDOT": 0}, "tle": {"line1": "1 35493U 09034A   25359.88406065 -.00000178  00000+0  00000+0 0  9996", "line2": "2 35493   0.0148 303.8545 0000790 217.7513 165.1409  1.00269478 44909"}}, "geometry": {"type": "Point", "coordinates": [-117.99931408782066, -0.01992812238731479]}}, {"type": "Feature", "properties": {"norad_id": 36097, "name": "INTELSAT 14 (IS-14)", "group": "intelsat", "lat": -0.02929407127993713, "lon": -76.84123218859189, "alt_km": 35774.84424210609, "timestamp": "2025-12-27T15:27:10.811114+00:00", "meta": {"OBJECT_NAME": "INTELSAT 14 (IS-14)", "OBJECT_ID": "2009-064A", "EPOCH": "2025-12-27T02:30:53.463744", "MEAN_MOTION": 1.00271432, "ECCENTRICITY": 0.00026949, "INCLINATION": 0.0147, "RA_OF_ASC_NODE": 44.1787, "ARG_OF_PERICENTER": 240.036, "MEAN_ANOMALY": 164.3491, "EPHEMERIS_TYPE": 0, "CLASSIFICATION_TYPE": "U", "NORAD_CAT_ID": 36097, "ELEMENT_SET_NO": 999, "REV_AT_EPOCH": 5888, "BSTAR": 0, "MEAN_MOTION_DOT": -2.51e-06, "MEAN_MOTION_DDOT": 0}, "tle": {"line1": "1 36097U 09064A   25361.10478546 -.00000251  00000+0  00000+0 0  9993", "line2": "2 36097   0.0147  44.1787 0002694 240.0360 164.3491  1.00271432 58883"}}, "geometry": {"type": "Point", "coordinates": [-76.84123218859189, -0.02929407127993713]}}, {"type": "Feature", "properties": {"norad_id": 36106, "name": "INTELSAT 15 (IS-15)", "group": "intelsat", "lat": 0.008250859907392992, "lon": 53.325829179946446, "alt_km": 35792.68634733946, "timestamp": "2025-12-27T15:27:10.811126+00:00", "meta": {"OBJECT_NAME": "INTELSAT 15 (IS-15)", "OBJECT_ID": "2009-067A", "EPOCH": "2025-12-26T18:35:08.612736", "MEAN_MOTION": 1.00269968, "ECCENTRICITY": 0.00024632, "INCLINATION": 0.0172, "RA_OF_ASC_NODE": 56.5413, "ARG_OF_PERICENTER": 231.3991, "MEAN_ANOMALY": 171.5093, "EPHEMERIS_TYPE": 0, "CLASSIFICATION_TYPE": "U", "NORAD_CAT_ID": 36106, "ELEMENT_SET_NO": 999, "REV_AT_EPOCH": 3950, "BSTAR": 0, "MEAN_MOTION_DOT": -1.63e-06, "MEAN_MOTION_DDOT": 0}, "tle": {"line1": "1 36106U 09067A   25360.77440524 -.00000163  00000+0  00000+0 0  9996", "line2": "2 36106   0.0172  56.5413 0002463 231.3991 171.5093  1.00269968 39509"}}, "geometry": {"type": "Point", "coordinates": [53.325829179946446, 0.008250859907392992]}}, {"type": "Feature", "properties": {"norad_id": 36131, "name": "DIRECTV 12", "group": "intelsat", "lat": 0.014257659232310682, "lon": -134.54479601114807, "alt_km": 35785.51437256407, "timestamp": "2025-12-27T15:27:10.811138+00:00", "meta": {"OBJECT_NAME": "DIRECTV 12", "OBJECT_ID": "2009-075A", "EPOCH": "2025-12-25T14:17:27.635136", "MEAN_MOTION": 1.00273448, "ECCENTRICITY": 5.26e-05, "INCLINATION": 0.0362, "RA_OF_ASC_NODE": 165.2057, "ARG_OF_PERICENTER": 147.3669, "MEAN_ANOMALY": 253.4343, "EPHEMERIS_TYPE": 0, "CLASSIFICATION_TYPE": "U", "NORAD_CAT_ID": 36131, "ELEMENT_SET_NO": 999, "REV_AT_EPOCH": 4481, "BSTAR": 0, "MEAN_MOTION_DOT": -8.2e-07, "MEAN_MOTION_DDOT": 0}, "tle": {"line1": "1 36131U 09075A   25359.59545874 -.00000082  00000+0  00000+0 0  9995", "line2": "2 36131   0.0362 165.2057 0000526 147.3669 253.4343  1.00273448 44812"}}, "geometry": {"type": "Point", "coordinates": [-134.54479601114807, 0.014257659232310682]}}, {"type": "Feature", "properties": {"norad_id": 36397, "name": "INTELSAT 16 (IS-16)", "group": "intelsat", "lat": -0.02416185998953032, "lon": -108.03279407744496, "alt_km": 35778.15597741055, "timestamp": "2025-12-27T15:27:10.811150+00:00", "meta": {"OBJECT_NAME": "INTELSAT 16 (IS-16)", "OBJECT_ID": "2010-006A", "EPOCH": "2025-12-27T05:43:27.525792", "MEAN_MOTION": 1.0027136, "ECCENTRICITY": 0.00020579, "INCLINATION": 0.0093, "RA_OF_ASC_NODE": 17.3806, "ARG_OF_PERICENTER": 256.3438, "MEAN_ANOMALY": 191.9297, "EPHEMERIS_TYPE": 0, "CLASSIFICATION_TYPE": "U", "NORAD_CAT_ID": 36397, "ELEMENT_SET_NO": 999, "REV_AT_EPOCH": 5793, "BSTAR": 0, "MEAN_MOTION_DOT": -2.22e-06, "MEAN_MOTION_DDOT": 0}, "tle": {"line1": "1 36397U 10006A   25361.23851303 -.00000222  00000+0  00000+0 0  9992", "line2": "2 36397   0.0093  17.3806 0002057 256.3438 191.9297  1.00271360 57934"}}, "geometry": {"type": "Point", "coordinates": [-108.03279407744496, -0.02416185998953032]}}, {"type": "Feature", "properties": {"norad_id": 37185, "name": "XM-5", "group": "intelsat", "lat": -0.05640111201488477, "lon": -147.01198529520025, "alt_km": 35781.62755615143, "timestamp": "2025-12-27T15:27:10.811162+00:00", "meta": {"OBJECT_NAME": "XM-5", "OBJECT_ID": "2010-053A", "EPOCH": "2025-12-26T06:45:38.542176", "MEAN_MOTION": 1.00272159, "ECCENTRICITY": 0.0002039, "INCLINATION": 0.0641, "RA_OF_ASC_NODE": 269.394, "ARG_OF_PERICENTER": 243.8981, "MEAN_ANOMALY": 287.9534, "EPHEMERIS_TYPE": 0, "CLASSIFICATION_TYPE": "U", "NORAD_CAT_ID": 37185, "ELEMENT_SET_NO": 999, "REV_AT_EPOCH": 5575, "BSTAR": 0, "MEAN_MOTION_DOT": -1e-08, "MEAN_MOTION_DDOT": 0}, "tle": {"line1": "1 37185U 10053A   25360.28169609 -.00000001  00000+0  00000+0 0  9990", "line2": "2 37185   0.0641 269.3940 0002039 243.8981 287.9534  1.00272159 55756"}}, "geometry": {"type": "Point", "coordinates": [-147.01198529520025, -0.05640111201488477]}}, {"type": "Feature", "properties": {"norad_id": 37238, "name": "INTELSAT 17 (IS-17)", "group": "intelsat", "lat": -0.013518422877867727, "lon": 34.167557910132054, "alt_km": 35786.71485812672, "timestamp": "2025-12-27T15:27:10.811174+00:00", "meta": {"OBJECT_NAME": "INTELSAT 17 (IS-17)", "OBJECT_ID": "2010-065B", "EPOCH": "2025-12-27T04:45:22.696704", "MEAN_MOTION": 1.00272114, "ECCENTRICITY": 0.00029457, "INCLINATION": 0.0312, "RA_OF_ASC_NODE": 75.6259, "ARG_OF_PERICENTER": 225.2784, "MEAN_ANOMALY": 292.3464, "EPHEMERIS_TYPE": 0, "CLASSIFICATION_TYPE": "U", "NORAD_CAT_ID": 37238, "ELEMENT_SET_NO": 999, "REV_AT_EPOCH": 5152, "BSTAR": 0, "MEAN_MOTION_DOT": 0, "MEAN_MOTION_DDOT": 0}, "tle": {"line1": "1 37238U 10065B   25361.19817936  .00000000  00000+0  00000+0 0  9994", "line2": "2 37238   0.0312  75.6259 0002945 225.2784 292.3464  1.00272114 51526"}}, "geometry": {"type": "Point", "coordinates": [34.167557910132054, -0.013518422877867727]}}, {"type": "Feature", "properties": {"norad_id": 37392, "name": "INTELSAT 28 (IS-28)", "group": "intelsat", "lat": -0.7306106306420471, "lon": -63.53604994193593, "alt_km": 35771.29171133, "timestamp": "2025-12-27T15:27:10.811186+00:00", "meta": {"OBJECT_NAME": "INTELSAT 28 (IS-28)", "OBJECT_ID": "2011-016A", "EPOCH": "2025-12-27T02:34:45.592896", "MEAN_MOTION": 1.00271118, "ECCENTRICITY": 0.00038602, "INCLINATION": 1.3598, "RA_OF_ASC_NODE": 84.8973, "ARG_OF_PERICENTER": 189.2455, "MEAN_ANOMALY": 188.6848, "EPHEMERIS_TYPE": 0, "CLASSIFICATION_TYPE": "U", "NORAD_CAT_ID": 37392, "ELEMENT_SET_NO": 999, "REV_AT_EPOCH": 5156, "BSTAR": 0, "MEAN_MOTION_DOT": -2.03e-06, "MEAN_MOTION_DDOT": 0}, "tle": {"line1": "1 37392U 11016A   25361.10747214 -.00000203  00000+0  00000+0 0  9990", "line2": "2 37392   1.3598  84.8973 0003860 189.2455 188.6848  1.00271118 51563"}}, "geometry": {"type": "Point", "coordinates": [-63.53604994193593, -0.7306106306420471]}}]}